SATELIOT_2              
1 60534U 24149BU  26136.19463074  .00000823  00000+0  77951-4 0  9995
2 60534  97.6831 211.7362 0001376 113.1416 246.9951 14.96232467 95183
NIGHTJAR                
1 60535U 24149BV  26136.28271479  .00002022  00000+0  17255-3 0  9995
2 60535  97.6838 213.4352 0001752 139.8688 220.2664 14.98816318138092
LEMUR-2-MARHISYAM       
1 60536U 24149BW  26136.27273354  .00008494  00000+0  51866-3 0  9994
2 60536  97.6881 219.0234 0001860 181.1331 178.9895 15.10547606 95663
SATELIOT_4              
1 60537U 24149BX  26136.27894103  .00001605  00000+0  14616-3 0  9995
2 60537  97.6738 211.3680 0003355 123.9832 236.1708 14.96543679 95205
PICO-02A021             
1 60538U 24149BY  26135.67943139  .00002994  00000+0  22741-3 0  9993
2 60538  97.6773 214.8008 0007070 119.6086 240.5844 15.02926200 94851
ICEYE-X43               
1 60539U 24149BZ  26136.26983358  .00001887  00000+0  15749-3 0  9997
2 60539  97.6769 213.6756 0004881 187.7323 172.3826 14.99758494 95330
HAWK-10A                
1 60540U 24149CA  26136.27453260  .00000986  00000+0  92018-4 0  9998
2 60540  97.6892 212.7356 0003903 158.0842 202.0547 14.96404008 95210
UMBRA-09                
1 60541U 24149CB  26136.28473022  .00011037  00000+0  56159-3 0  9992
2 60541  97.6968 222.9717 0001349 124.2254 235.9107 15.17004820 95885
QPS-SAR-8 (AMATERU-IV)  
1 60542U 24149CC  26136.25781616  .00003019  00000+0  22425-3 0  9991
2 60542  97.6659 215.6848 0002855 191.3365 168.7796 15.03781518 95471
ARCTIC WEATHER SATELLITE
1 60543U 24149CD  26136.18334746  .00000426  00000+0  50013-4 0  9996
2 60543  97.6808 207.5615 0001930 171.4572 188.6680 14.89798666 94536
CAPELLA-15 (ACADIA-5)   
1 60544U 24149CE  26136.27458094  .00000840  00000+0  87253-4 0  9996
2 60544  97.6781 209.9728 0004139 167.1248 193.0078 14.92456221 95099
HAWK-10B                
1 60545U 24149CF  26136.27438622  .00001032  00000+0  96096-4 0  9991
2 60545  97.6813 212.1228 0005242 184.1027 176.0153 14.96404796 95210
ICEYE-X39               
1 60546U 24149CG  26135.65216426  .00000974  00000+0  83658-4 0  9993
2 60546  97.6820 213.1187 0002356 176.4303 183.6938 14.99711165 95240
UMBRA-10                
1 60547U 24149CH  26136.28428499  .00013408  00000+0  68114-3 0  9994
2 60547  97.6975 222.9968 0002296 105.2885 254.8602 15.17008806 95897
ICEYE-X33               
1 60548U 24149CJ  26136.23509807  .00003481  00000+0  27806-3 0  9996
2 60548  97.7182 215.5702 0000510 326.6915  33.4276 15.00914751 95416
ICEYE-X40               
1 60549U 24149CK  26136.17063732  .00001535  00000+0  13548-3 0  9998
2 60549  97.6821 213.1826 0005047 161.5156 198.6251 14.97838162 95288
SATELIOT_1              
1 60550U 24149CL  26136.09740581  .00002035  00000+0  17750-3 0  9990
2 60550  97.6759 212.5315 0006995 165.5749 194.5675 14.97933427 95264
BRO-14                  
1 60551U 24149CM  26136.15973288  .00001129  00000+0  10541-3 0  9994
2 60551  97.6877 212.5128 0006350 190.3831 169.7261 14.96113761 95200
SATELIOT_3              
1 60552U 24149CN  26136.20650278  .00001224  00000+0  10884-3 0  9998
2 60552  97.6818 213.4011 0005220 178.4276 181.6964 14.97910099 95294
BRO-15                  
1 60553U 24149CP  26136.14138213  .00000525  00000+0  51826-4 0  9997
2 60553  97.6803 212.1269 0007992 184.6953 175.4194 14.96067594 95219
UM5-RIBAT               
1 60554U 24149CQ  26136.27299682  .00001794  00000+0  14563-3 0  9995
2 60554  97.6658 214.5037 0003346 112.3571 247.8008 15.00882330 95408
UM5-EOSAT               
1 60555U 24149CR  26136.24835976  .00001969  00000+0  15771-3 0  9991
2 60555  97.6656 215.3831 0007034 208.9911 151.0923 15.01287693 95422
LASARSAT                
1 62391U 24247Q   26136.23614122  .00028867  00000+0  61853-3 0  9995
2 62391  44.9749  81.4658 0005040 144.8918 215.2304 15.44289693 78379
CROCUBE                 
1 62394U 24247T   26135.55919162  .00022265  00000+0  45446-3 0  9990
2 62394  44.9721  83.0806 0004663 142.7008 217.4206 15.45851171 78295
TEVEL2-4                
1 63213U 25052D   26136.15361227  .00014552  00000+0  45254-3 0  9993
2 63213  97.3944  32.5162 0002016 166.1234 194.0064 15.33423730 65202
TEVEL2-5                
1 63214U 25052E   26136.23595839  .00016273  00000+0  50808-3 0  9994
2 63214  97.3944  32.5554 0002014 164.1236 196.0070 15.33272171 65217
TEVEL2-6                
1 63215U 25052F   26136.24751337  .00015613  00000+0  48817-3 0  9997
2 63215  97.3945  32.5518 0002074 166.9330 193.1966 15.33235749 65212
TEVEL2-1                
1 63217U 25052H   26135.22135050  .00009533  00000+0  30415-3 0  9993
2 63217  97.3922  31.1876 0001389 186.2760 173.8465 15.32713961 65047
TEVEL2-3                
1 63218U 25052J   26136.13106729  .00013537  00000+0  42968-3 0  9991
2 63218  97.3924  32.1144 0001476 183.8720 176.2511 15.32786709 65189
TEVEL2-2                
1 63219U 25052K   26135.67881880  .00010674  00000+0  34005-3 0  9990
2 63219  97.3921  31.6464 0001415 185.6149 174.5078 15.32730323 65117
