OBJECT_NAME,OBJECT_ID,EPOCH,MEAN_MOTION,ECCENTRICITY,INCLINATION,RA_OF_ASC_NODE,ARG_OF_PERICENTER,MEAN_ANOMALY,EPHEMERIS_TYPE,CLASSIFICATION_TYPE,NORAD_CAT_ID,ELEMENT_SET_NO,REV_AT_EPOCH,BSTAR,MEAN_MOTION_DOT,MEAN_MOTION_DDOT
SATELIOT_2,2024-149BU,2026-05-16T04:40:16.095936,14.96232467,.00013762,97.6831,211.7362,113.1416,246.9951,0,U,60534,999,9518,.77951419E-4,.823E-5,0
NIGHTJAR,2024-149BV,2026-05-16T06:47:06.557856,14.98816318,.00017527,97.6838,213.4352,139.8688,220.2664,0,U,60535,999,13809,.17254957E-3,.2022E-4,0
LEMUR-2-MARHISYAM,2024-149BW,2026-05-16T06:32:44.177856,15.10547606,.00018605,97.6881,219.0234,181.1331,178.9895,0,U,60536,999,9566,.51866052E-3,.8494E-4,0
SATELIOT_4,2024-149BX,2026-05-16T06:41:40.504992,14.96543679,.00033554,97.6738,211.3680,123.9832,236.1708,0,U,60537,999,9520,.1461561E-3,.1605E-4,0
PICO-02A021,2024-149BY,2026-05-15T16:18:22.872096,15.02926200,.00070706,97.6773,214.8008,119.6086,240.5844,0,U,60538,999,9485,.22741466E-3,.2994E-4,0
ICEYE-X43,2024-149BZ,2026-05-16T06:28:33.621312,14.99758494,.00048813,97.6769,213.6756,187.7323,172.3826,0,U,60539,999,9533,.15748835E-3,.1887E-4,0
HAWK-10A,2024-149CA,2026-05-16T06:35:19.616640,14.96404008,.00039035,97.6892,212.7356,158.0842,202.0547,0,U,60540,999,9521,.92017587E-4,.986E-5,0
UMBRA-09,2024-149CB,2026-05-16T06:50:00.691008,15.17004820,.00013496,97.6968,222.9717,124.2254,235.9107,0,U,60541,999,9588,.5615949E-3,.11037E-3,0
QPS-SAR-8 (AMATERU-IV),2024-149CC,2026-05-16T06:11:15.316224,15.03781518,.00028558,97.6659,215.6848,191.3365,168.7796,0,U,60542,999,9547,.2242456E-3,.3019E-4,0
ARCTIC WEATHER SATELLITE,2024-149CD,2026-05-16T04:24:01.220544,14.89798666,.000193,97.6808,207.5615,171.4572,188.6680,0,U,60543,999,9453,.50013488E-4,.426E-5,0
CAPELLA-15 (ACADIA-5),2024-149CE,2026-05-16T06:35:23.793216,14.92456221,.00041398,97.6781,209.9728,167.1248,193.0078,0,U,60544,999,9509,.87253118E-4,.84E-5,0
HAWK-10B,2024-149CF,2026-05-16T06:35:06.969408,14.96404796,.00052426,97.6813,212.1228,184.1027,176.0153,0,U,60545,999,9521,.96095777E-4,.1032E-4,0
ICEYE-X39,2024-149CG,2026-05-15T15:39:06.992064,14.99711165,.00023567,97.6820,213.1187,176.4303,183.6938,0,U,60546,999,9524,.83658082E-4,.974E-5,0
UMBRA-10,2024-149CH,2026-05-16T06:49:22.223136,15.17008806,.00022965,97.6975,222.9968,105.2885,254.8602,0,U,60547,999,9589,.6811436E-3,.13408E-3,0
ICEYE-X33,2024-149CJ,2026-05-16T05:38:32.473248,15.00914751,.00005106,97.7182,215.5702,326.6915,33.4276,0,U,60548,999,9541,.27806404E-3,.3481E-4,0
ICEYE-X40,2024-149CK,2026-05-16T04:05:43.064448,14.97838162,.00050475,97.6821,213.1826,161.5156,198.6251,0,U,60549,999,9528,.13548085E-3,.1535E-4,0
SATELIOT_1,2024-149CL,2026-05-16T02:20:15.861984,14.97933427,.00069953,97.6759,212.5315,165.5749,194.5675,0,U,60550,999,9526,.1774967E-3,.2035E-4,0
BRO-14,2024-149CM,2026-05-16T03:50:00.920832,14.96113761,.00063504,97.6877,212.5128,190.3831,169.7261,0,U,60551,999,9520,.10541104E-3,.1129E-4,0
SATELIOT_3,2024-149CN,2026-05-16T04:57:21.840192,14.97910099,.00052201,97.6818,213.4011,178.4276,181.6964,0,U,60552,999,9529,.10883746E-3,.1224E-4,0
BRO-15,2024-149CP,2026-05-16T03:23:35.416032,14.96067594,.00079922,97.6803,212.1269,184.6953,175.4194,0,U,60553,999,9521,.51825822E-4,.525E-5,0
UM5-RIBAT,2024-149CQ,2026-05-16T06:33:06.925248,15.00882330,.00033467,97.6658,214.5037,112.3571,247.8008,0,U,60554,999,9540,.14563009E-3,.1794E-4,0
UM5-EOSAT,2024-149CR,2026-05-16T05:57:38.283264,15.01287693,.00070342,97.6656,215.3831,208.9911,151.0923,0,U,60555,999,9542,.15770569E-3,.1969E-4,0
LASARSAT,2024-247Q,2026-05-16T05:40:02.601408,15.44289693,.00050408,44.9749,81.4658,144.8918,215.2304,0,U,62391,999,7837,.61853048E-3,.28867E-3,0
CROCUBE,2024-247T,2026-05-15T13:25:14.155968,15.45851171,.00046634,44.9721,83.0806,142.7008,217.4206,0,U,62394,999,7829,.454458E-3,.22265E-3,0
TEVEL2-4,2025-052D,2026-05-16T03:41:12.100128,15.33423730,.00020169,97.3944,32.5162,166.1234,194.0064,0,U,63213,999,6520,.45253795E-3,.14552E-3,0
TEVEL2-5,2025-052E,2026-05-16T05:39:46.804896,15.33272171,.0002014,97.3944,32.5554,164.1236,196.0070,0,U,63214,999,6521,.50807979E-3,.16273E-3,0
TEVEL2-6,2025-052F,2026-05-16T05:56:25.155168,15.33235749,.00020741,97.3945,32.5518,166.9330,193.1966,0,U,63215,999,6521,.48817108E-3,.15613E-3,0
TEVEL2-1,2025-052H,2026-05-15T05:18:44.683200,15.32713961,.0001389,97.3922,31.1876,186.2760,173.8465,0,U,63217,999,6504,.30415181E-3,.9533E-4,0
TEVEL2-3,2025-052J,2026-05-16T03:08:44.213856,15.32786709,.00014761,97.3924,32.1144,183.8720,176.2511,0,U,63218,999,6518,.42968435E-3,.13537E-3,0
TEVEL2-2,2025-052K,2026-05-15T16:17:29.944320,15.32730323,.00014155,97.3921,31.6464,185.6149,174.5078,0,U,63219,999,6511,.3400495E-3,.10674E-3,0
